*******************************************************************************
Ephemeris / PORT_LOGIN Sun Nov 27 10:13:18 2011 Pasadena, USA    / Horizons    
*******************************************************************************
Target body name: Deimos (402)                    {source: MAR085}
Center body name: Solar System Barycenter (0)     {source: DE405}
Center-site name: BODY CENTER
*******************************************************************************
Start time      : A.D. 2001-Jan-01 10:00:00.0000 CT 
Stop  time      : A.D. 2001-Jan-02 00:00:00.0000 CT 
Step-size       : 60 minutes
*******************************************************************************
Center geodetic : 0.00000000,0.00000000,0.0000000 {E-lon(deg),Lat(deg),Alt(km)}
Center cylindric: 0.00000000,0.00000000,0.0000000 {E-lon(deg),Dxy(km),Dz(km)}
Center radii    : (undefined)                                                  
Output units    : AU-D                                                         
Output format   : 03
Reference frame : ICRF/J2000.0                                                 
Output type     : GEOMETRIC cartesian states
Coordinate systm: Earth Mean Equator and Equinox of Reference Epoch            
*******************************************************************************
JDCT 
   X     Y     Z
   VX    VY    VZ
   LT    RG    RR
*******************************************************************************
$$SOE
2451910.916666667 = A.D. 2001-Jan-01 10:00:00.0000 (CT)
  -1.651598984579776E+00 -7.796393468202639E-02  9.075363780625106E-03
   1.696056277265285E-03 -1.176385662637006E-02 -5.797524194443420E-03
   9.549605955060847E-03  1.653463015372222E+00 -1.171276828559746E-03
2451910.958333333 = A.D. 2001-Jan-01 11:00:00.0000 (CT)
  -1.651527159968495E+00 -7.845103513525349E-02  8.834737220385157E-03
   1.746827928864613E-03 -1.161646088281225E-02 -5.749562947190254E-03
   9.549317141081650E-03  1.653413008781880E+00 -1.224380269457631E-03
2451911.000000000 = A.D. 2001-Jan-01 12:00:00.0000 (CT)
  -1.651453818328502E+00 -7.893197523136744E-02  8.596466627709819E-03
   1.768643714394855E-03 -1.146921926991846E-02 -5.684843161465035E-03
   9.549018988057371E-03  1.653361385186008E+00 -1.248616828167187E-03
2451911.041666667 = A.D. 2001-Jan-01 13:00:00.0000 (CT)
  -1.651380186132919E+00 -7.940689326871578E-02  8.361194806385527E-03
   1.760756102598984E-03 -1.132843843040507E-02 -5.606138371606819E-03
   9.548718591736564E-03  1.653309373175382E+00 -1.242958932840184E-03
2451911.083333333 = A.D. 2001-Jan-01 14:00:00.0000 (CT)
  -1.651307494454727E+00 -7.987618552035916E-02  8.129436002460057E-03
   1.723692782101588E-03 -1.120014989333100E-02 -5.516823672014036E-03
   9.548423141639445E-03  1.653258217576840E+00 -1.207657825158841E-03
2451911.125000000 = A.D. 2001-Jan-01 15:00:00.0000 (CT)
  -1.651236926097379E+00 -8.034048929839868E-02  7.901553777127996E-03
   1.659234771819592E-03 -1.108985027190042E-02 -5.420730826787034E-03
   9.548139613369207E-03  1.653209126178633E+00 -1.144233898414618E-03
2451911.166666667 = A.D. 2001-Jan-01 16:00:00.0000 (CT)
  -1.651169564774441E+00 -8.080065563129822E-02  7.677745354979564E-03
   1.570340295600681E-03 -1.100226431950315E-02 -5.321983470283497E-03
   9.547874469865519E-03  1.653163218004079E+00 -1.055412282862679E-03
2451911.208333333 = A.D. 2001-Jan-01 17:00:00.0000 (CT)
  -1.651106348538921E+00 -8.125771272726513E-02  7.458033130524816E-03
   1.461017654398160E-03 -1.094114122898668E-02 -5.224819561364140E-03
   9.547633384503037E-03  1.653121475367546E+00 -9.450063496713961E-04
2451911.250000000 = A.D. 2001-Jan-01 18:00:00.0000 (CT)
  -1.651048029480552E+00 -8.171282180087128E-02  7.242263704263109E-03
   1.336152589983889E-03 -1.090909311255731E-02 -5.133408832832309E-03
   9.547420998013834E-03  1.653084701786886E+00 -8.177541164531138E-04
2451911.291666667 = A.D. 2001-Jan-01 19:00:00.0000 (CT)
  -1.650995141436346E+00 -8.216722717480129E-02  7.030114490582665E-03
   1.201297695162206E-03 -1.090748273469028E-02 -5.051673226498109E-03
   9.547240719750228E-03  1.653053487573153E+00 -6.791146783546395E-04
2451911.333333333 = A.D. 2001-Jan-01 20:00:00.0000 (CT)
  -1.650947977108664E+00 -8.262220281881898E-02  6.821107608370743E-03
   1.062433099462158E-03 -1.093636538081726E-02 -4.983118164502922E-03
   9.547094581868622E-03  1.653028184583321E+00 -5.350335652165432E-04
2451911.375000000 = A.D. 2001-Jan-01 21:00:00.0000 (CT)
  -1.650906575572657E+00 -8.307899764122671E-02  6.614630447464878E-03
   9.257089238398739E-04 -1.099448730682052E-02 -4.930682002618911E-03
   9.546983152698051E-03  1.653008891220512E+00 -3.916873086066272E-04
2451911.416666667 = A.D. 2001-Jan-01 22:00:00.0000 (CT)
  -1.650870720699657E+00 -8.353878189762376E-02  6.409962014160743E-03
   7.971807749676989E-04 -1.107934069754205E-02 -4.896610182608840E-03
   9.546905512963524E-03  1.652995448317195E+00 -2.552184037140344E-04
2451911.458333333 = A.D. 2001-Jan-01 23:00:00.0000 (CT)
  -1.650839950546634E+00 -8.400259702643764E-02  6.206303910072181E-03
   6.825497903363908E-04 -1.118727256149940E-02 -4.882359468523982E-03
   9.546859295787847E-03  1.652987446061289E+00 -1.314722144404033E-04
2451911.500000000 = A.D. 2001-Jan-02 00:00:00.0000 (CT)
  -1.650813577286305E+00 -8.447131106374749E-02  6.002814601963190E-03
   5.869184633639536E-04 -1.131364263841746E-02 -4.888536292020385E-03
   9.546840788626471E-03  1.652984241645630E+00 -2.574720161941010E-05
$$EOE
*******************************************************************************
Coordinate system description:

  Earth Mean Equator and Equinox of Reference Epoch

    Reference epoch: J2000.0
    xy-plane: plane of the Earth's mean equator at the reference epoch
    x-axis  : out along ascending node of instantaneous plane of the Earth's
              orbit and the Earth's mean equator at the reference epoch
    z-axis  : along the Earth mean north pole at the reference epoch

Symbol meaning [1 AU=149597870.691 km, 1 day=86400.0 s]:

    JDCT     Epoch Julian Date, Coordinate Time
      X      x-component of position vector (AU)                               
      Y      y-component of position vector (AU)                               
      Z      z-component of position vector (AU)                               
      VX     x-component of velocity vector (AU/day)                           
      VY     y-component of velocity vector (AU/day)                           
      VZ     z-component of velocity vector (AU/day)                           
      LT     One-way down-leg Newtonian light-time (day)                       
      RG     Range; distance from coordinate center (AU)                       
      RR     Range-rate; radial velocity wrt coord. center (AU/day)            

Geometric states/elements have no aberration corrections applied.

 Computations by ...
     Solar System Dynamics Group, Horizons On-Line Ephemeris System
     4800 Oak Grove Drive, Jet Propulsion Laboratory
     Pasadena, CA  91109   USA
     Information: http://ssd.jpl.nasa.gov/
     Connect    : telnet://ssd.jpl.nasa.gov:6775  (via browser)
                  telnet ssd.jpl.nasa.gov 6775    (via command-line)
     Author     : Jon.Giorgini@jpl.nasa.gov
*******************************************************************************
